NORAD_CAT_ID,OBJECT_NAME,OBJECT_TYPE,EPOCH,MEAN_MOTION,ECCENTRICITY,INCLINATION,RA_OF_ASC_NODE,ARG_OF_PERICENTER,MEAN_ANOMALY,BSTAR,MEAN_MOTION_DOT,MEAN_MOTION_DDOT,TLE_LINE0,TLE_LINE1,TLE_LINE2,SEMIMAJOR_AXIS,PERIOD,APOGEE,PERIGEE,DECAYED
53629.0,STARLINK-4602,PAYLOAD,2023-02-22 01:49:31,15.08847566,0.0001319,53.217,184.0288,84.5928,275.5215,-2.1142e-05,-6.24e-06,0.0,0 STARLINK-4602,1 53629U 22104AT  23053.07605742 -.00000624  00000-0 -21142-4 0  9996,2 53629  53.2170 184.0288 0001319  84.5928 275.5215 15.08847566 27259,6917.857,95.437,540.635,538.81,0.0
53629.0,STARLINK-4602,PAYLOAD,2023-02-22 12:57:13,15.08840479,0.000138,53.2167,181.9477,86.1951,273.9199,-6.0973e-05,-1.258e-05,0.0,0 STARLINK-4602,1 53629U 22104AT  23053.53974337 -.00001258  00000-0 -60973-4 0  9995,2 53629  53.2167 181.9477 0001380  86.1951 273.9199 15.08840479 28017,6917.879,95.438,540.699,538.789,0.0
53629.0,STARLINK-4602,PAYLOAD,2023-02-22 17:43:22,15.08846377,0.0001416,53.2173,181.0565,87.7264,272.3891,-3.8701e-06,-3.5e-06,0.0,0 STARLINK-4602,1 53629U 22104AT  23053.73845717 -.00000350  00000-0 -38701-5 0  9993,2 53629  53.2173 181.0565 0001416  87.7264 272.3891 15.08846377 28045,6917.861,95.437,540.705,538.746,0.0
53629.0,STARLINK-4602,PAYLOAD,2023-02-23 01:40:18,15.08834004,0.0001075,53.2175,179.5671,89.7254,270.3862,-4.7198e-05,-1.039e-05,0.0,0 STARLINK-4602,1 53629U 22104AT  23054.06966426 -.00001039  00000-0 -47198-4 0  9995,2 53629  53.2175 179.5671 0001075  89.7254 270.3862 15.08834004 27408,6917.899,95.438,540.507,539.02,0.0
53629.0,STARLINK-4602,PAYLOAD,2023-02-23 11:12:38,15.08832821,0.0001359,53.2165,177.7863,90.432,269.6828,-4.0942e-05,-9.39e-06,0.0,0 STARLINK-4602,1 53629U 22104AT  23054.46710787 -.00000939  00000-0 -40942-4 0  9994,2 53629  53.2165 177.7863 0001359  90.4320 269.6828 15.08832821 28159,6917.902,95.438,540.707,538.827,0.0
53629.0,STARLINK-4602,PAYLOAD,2023-02-23 17:34:09,15.08851188,0.0001093,53.2167,176.5925,111.9321,248.1787,5.8447e-06,-1.95e-06,0.0,0 STARLINK-4602,1 53629U 22104AT  23054.73205293 -.00000195  00000-0  58447-5 0  9998,2 53629  53.2167 176.5925 0001093 111.9321 248.1787 15.08851188 27503,6917.846,95.437,540.467,538.955,0.0
53629.0,STARLINK-4602,PAYLOAD,2023-02-24 01:31:06,15.08840156,0.0001205,53.2168,175.108,90.3707,269.7423,-0.00011125,-2.058e-05,0.0,0 STARLINK-4602,1 53629U 22104AT  23055.06326473 -.00002058  00000-0 -11125-3 0  9990,2 53629  53.2168 175.1080 0001205  90.3707 269.7423 15.08840156 27558,6917.88,95.438,540.579,538.911,0.0
53629.0,STARLINK-4602,PAYLOAD,2023-02-24 12:38:47,15.08836979,0.0001389,53.2158,173.0278,76.0199,284.0947,2.4121e-05,9.6e-07,0.0,0 STARLINK-4602,1 53629U 22104AT  23055.52694369  .00000096  00000-0  24121-4 0  9992,2 53629  53.2158 173.0278 0001389  76.0199 284.0947 15.08836979 28316,6917.89,95.438,540.716,538.794,0.0
53629.0,STARLINK-4602,PAYLOAD,2023-02-24 17:24:56,15.08850527,0.0001218,53.2171,172.1351,84.9996,275.1135,2.8397e-05,1.64e-06,0.0,0 STARLINK-4602,1 53629U 22104AT  23055.72565412  .00000164  00000-0  28397-4 0  9995,2 53629  53.2171 172.1351 0001218  84.9996 275.1135 15.08850527 27658,6917.848,95.437,540.556,538.871,0.0
53629.0,STARLINK-4602,PAYLOAD,2023-02-25 12:29:35,15.08825994,0.0001237,53.2163,168.5678,87.7305,272.3829,-3.1063e-05,-7.82e-06,0.0,0 STARLINK-4602,1 53629U 22104AT  23056.52055516 -.00000782  00000-0 -31063-4 0  9995,2 53629  53.2163 168.5678 0001237  87.7305 272.3829 15.08825994 27778,6917.923,95.438,540.644,538.932,0.0
53629.0,STARLINK-4602,PAYLOAD,2023-02-25 17:15:44,15.08837677,0.0001203,53.2185,167.6722,96.1441,263.9688,-5.762e-05,-1.205e-05,0.0,0 STARLINK-4602,1 53629U 22104AT  23056.71926928 -.00001205  00000-0 -57620-4 0  9998,2 53629  53.2185 167.6722 0001203  96.1441 263.9688 15.08837677 27804,6917.887,95.438,540.585,538.92,0.0
53629.0,STARLINK-4602,PAYLOAD,2023-02-26 10:44:58,15.08842663,0.0001296,53.2173,164.4048,84.3464,275.7676,5.8142e-05,6.38e-06,0.0,0 STARLINK-4602,1 53629U 22104AT  23057.44790344  .00000638  00000-0  58142-4 0  9997,2 53629  53.2173 164.4048 0001296  84.3464 275.7676 15.08842663 28601,6917.872,95.437,540.634,538.841,0.0
53629.0,STARLINK-4602,PAYLOAD,2023-02-26 17:06:29,15.08863286,0.0001087,53.2176,163.2126,95.5364,264.5752,0.00013508,1.864e-05,0.0,0 STARLINK-4602,1 53629U 22104AT  23057.71284430  .00001864  00000-0  13508-3 0  9999,2 53629  53.2176 163.2126 0001087  95.5364 264.5752 15.08863286 27951,6917.809,95.436,540.426,538.922,0.0
53629.0,STARLINK-4602,PAYLOAD,2023-02-26 23:28:05,15.08827831,0.0001277,53.2177,162.0254,99.5848,260.5289,-0.00019095,-3.324e-05,0.0,0 STARLINK-4602,1 53629U 22104AT  23057.97783735 -.00003324  00000-0 -19095-3 0  9991,2 53629  53.2177 162.0254 0001277  99.5848 260.5289 15.08827831 27994,6917.918,95.438,540.666,538.899,0.0
53629.0,STARLINK-4602,PAYLOAD,2023-02-27 09:00:24,15.08824344,0.0001155,53.217,160.2397,100.5555,259.5568,-0.00011036,-2.043e-05,0.0,0 STARLINK-4602,1 53629U 22104AT  23058.37528227 -.00002043  00000-0 -11036-3 0  9993,2 53629  53.2170 160.2397 0001155 100.5555 259.5568 15.08824344 28746,6917.928,95.439,540.592,538.994,0.0
53629.0,STARLINK-4602,PAYLOAD,2023-02-27 15:21:54,15.08851188,0.0001276,53.2173,159.0519,112.826,247.2867,0.00010996,1.463e-05,0.0,0 STARLINK-4602,1 53629U 22104AT  23058.64021797  .00001463  00000-0  10996-3 0  9990,2 53629  53.2173 159.0519 0001276 112.8260 247.2867 15.08851188 28094,6917.846,95.437,540.594,538.828,0.0
53629.0,STARLINK-4602,PAYLOAD,2023-02-27 18:32:40,15.08854655,0.0001243,53.2175,158.4526,120.4055,239.706,0.00019076,2.751e-05,0.0,0 STARLINK-4602,1 53629U 22104AT  23058.77269068  .00002751  00000-0  19076-3 0  9998,2 53629  53.2175 158.4526 0001243 120.4055 239.7060 15.08854655 28800,6917.836,95.437,540.56,538.841,0.0
53629.0,STARLINK-4602,PAYLOAD,2023-02-27 23:18:52,15.08826338,8.91e-05,53.2172,157.566,93.2095,266.8999,-0.00010349,-1.934e-05,0.0,0 STARLINK-4602,1 53629U 22104AT  23058.97143842 -.00001934  00000-0 -10349-3 0  9999,2 53629  53.2172 157.5660 0000891  93.2095 266.8999 15.08826338 28141,6917.922,95.438,540.404,539.171,0.0
53629.0,STARLINK-4602,PAYLOAD,2023-02-28 13:37:20,15.08844848,0.0001242,53.217,154.888,93.0583,267.0551,-0.0001636,-2.891e-05,0.0,0 STARLINK-4602,1 53629U 22104AT  23059.56759296 -.00002891  00000-0 -16360-3 0  9993,2 53629  53.2170 154.8880 0001242  93.0583 267.0551 15.08844848 28923,6917.866,95.437,540.59,538.871,0.0
53629.0,STARLINK-4602,PAYLOAD,2023-02-28 15:12:42,15.08854472,0.0001069,53.217,154.5901,109.4954,250.6154,-8.4186e-05,-1.628e-05,0.0,0 STARLINK-4602,1 53629U 22104AT  23059.63382274 -.00001628  00000-0 -84186-4 0  9998,2 53629  53.2170 154.5901 0001069 109.4954 250.6154 15.08854472 28241,6917.836,95.437,540.441,538.962,0.0
53629.0,STARLINK-4602,PAYLOAD,2023-02-28 23:09:39,15.08839319,0.0001331,53.2172,153.1043,75.6737,284.4403,-0.00019848,-3.445e-05,0.0,0 STARLINK-4602,1 53629U 22104AT  23059.96503720 -.00003445  00000-0 -19848-3 0  9996,2 53629  53.2172 153.1043 0001331  75.6737 284.4403 15.08839319 28290,6917.882,95.438,540.668,538.827,0.0
53629.0,STARLINK-4602,PAYLOAD,2023-03-01 10:17:23,15.08804769,0.0001444,53.2163,151.0237,81.0608,279.0548,-0.00012325,-2.247e-05,0.0,0 STARLINK-4602,1 53629U 22104AT  23060.42874452 -.00002247  00000-0 -12325-3 0  9994,2 53629  53.2163 151.0237 0001444  81.0608 279.0548 15.08804769 28364,6917.988,95.44,540.852,538.854,0.0
53629.0,STARLINK-4602,PAYLOAD,2023-03-01 15:03:32,15.08816153,0.0001332,53.2176,150.1325,80.5482,279.566,-0.00010495,-1.957e-05,0.0,0 STARLINK-4602,1 53629U 22104AT  23060.62746013 -.00001957  00000-0 -10495-3 0  9990,2 53629  53.2176 150.1325 0001332  80.5482 279.5660 15.08816153 28399,6917.953,95.439,540.74,538.897,0.0
53629.0,STARLINK-4602,PAYLOAD,2023-03-01 23:00:27,15.08841558,0.000126,53.2171,148.6435,83.3633,276.7502,-0.00013536,-2.442e-05,0.0,0 STARLINK-4602,1 53629U 22104AT  23060.95864706 -.00002442  00000-0 -13536-3 0  9995,2 53629  53.2171 148.6435 0001260  83.3633 276.7502 15.08841558 28444,6917.876,95.437,540.612,538.869,0.0
53629.0,STARLINK-4602,PAYLOAD,2023-03-02 18:05:01,15.08868939,9.45e-05,53.217,145.0723,88.0861,272.024,0.00019164,2.766e-05,0.0,0 STARLINK-4602,1 53629U 22104AT  23061.75349537  .00002766  00000-0  19164-3 0  9994,2 53629  53.2170 145.0723 0000945  88.0861 272.0240 15.08868939 28561,6917.792,95.436,540.311,539.003,0.0
53629.0,STARLINK-4602,PAYLOAD,2023-03-03 11:34:18,15.08840484,0.0001918,53.2177,141.8038,63.7581,296.3608,0.00018261,2.619e-05,0.0,0 STARLINK-4602,1 53629U 22104AT  23062.48215534  .00002619  00000-0  18261-3 0  9998,2 53629  53.2177 141.8038 0001918  63.7581 296.3608 15.08840484 28675,6917.879,95.438,541.071,538.417,0.0
53629.0,STARLINK-4602,PAYLOAD,2023-03-03 16:20:25,15.08868401,0.0001073,53.2176,140.9107,89.0766,271.0349,0.00034634,5.233e-05,0.0,0 STARLINK-4602,1 53629U 22104AT  23062.68084787  .00005233  00000-0  34634-3 0  9991,2 53629  53.2176 140.9107 0001073  89.0766 271.0349 15.08868401 28704,6917.794,95.436,540.401,538.916,0.0
53629.0,STARLINK-4602,PAYLOAD,2023-03-03 22:42:00,15.08829666,9.48e-05,53.2183,139.7205,100.9742,259.1357,-6.5939e-05,-1.337e-05,0.0,0 STARLINK-4602,1 53629U 22104AT  23062.94584274 -.00001337  00000-0 -65939-4 0  9992,2 53629  53.2183 139.7205 0000948 100.9742 259.1357 15.08829666 28744,6917.912,95.438,540.433,539.121,0.0
53629.0,STARLINK-4602,PAYLOAD,2023-03-04 11:25:05,15.08848623,0.0001437,53.2182,137.343,80.0845,280.0309,-0.00020491,-3.548e-05,0.0,0 STARLINK-4602,1 53629U 22104AT  23063.47575873 -.00003548  00000-0 -20491-3 0  9995,2 53629  53.2182 137.3430 0001437  80.0845 280.0309 15.08848623 28826,6917.854,95.437,540.713,538.725,0.0
53629.0,STARLINK-4602,PAYLOAD,2023-03-04 16:11:13,15.08862914,0.0001276,53.2169,136.4466,125.864,234.2471,-0.00011747,-2.158e-05,0.0,0 STARLINK-4602,1 53629U 22104AT  23063.67445982 -.00002158  00000-0 -11747-3 0  9994,2 53629  53.2169 136.4466 0001276 125.8640 234.2471 15.08862914 28855,6917.81,95.436,540.558,538.793,0.0
